STARLINK-36515          
1 67430U 26005AC  26038.24481190  .00083245  00000+0  14075-2 0  9991
2 67430  42.9999  52.2266 0001438 247.1035 112.9674 15.50623913  4004
STARLINK-36443          
1 67431U 26005AD  26037.47081026  .00094766  00000+0  16011-2 0  9992
2 67431  43.0004  56.7384 0001405 276.4311  83.6389 15.50589941  3895
STARLINK-36460          
1 67432U 26005AE  26038.24344106  .00104517  00000+0  17608-2 0  9999
2 67432  43.0007  52.2165 0001460 259.9805 100.0891 15.50625205  4002
YAOGAN-50 01            
1 67433U 26006A   26038.30226267  .00000385  00000+0  17753-3 0  9995
2 67433 142.0320 308.0997 0000735 263.6810  96.3825 13.83241718  3446
CZ-6A R/B               
1 67434U 26006B   26038.30128231  .00002049  00000+0  24928-3 0  9999
2 67434 142.0436 323.5235 0203605 262.9627  94.7921 14.62310461  3620
HULIANWANG DIGUI-137    
1 67435U 26007A   26038.26083461  .00000021  00000+0  16838-3 0  9990
2 67435  50.0068 197.0278 0000531 356.1281   3.9607 13.75084022  3421
HULIANWANG DIGUI-138    
1 67436U 26007B   26038.26662391  .00000018  00000+0  16610-3 0  9990
2 67436  50.0044 197.0516 0000251  73.7968 286.2951 13.74706406  3428
HULIANWANG DIGUI-139    
1 67437U 26007C   26037.82732797  .00000050  00000+0  19833-3 0  9996
2 67437  50.0031 198.7083 0000946 213.8812 146.2020 13.74984577  3360
HULIANWANG DIGUI-140    
1 67438U 26007D   26038.26991552  .00000043  00000+0  19231-3 0  9996
2 67438  50.0039 197.0672 0000221 136.5189 223.5721 13.74511421  3427
HULIANWANG DIGUI-141    
1 67439U 26007E   26038.25715460  .00000024  00000+0  17104-3 0  9994
2 67439  50.0035 196.9984 0000292 166.8493 193.2407 13.75280399  3422
HULIANWANG DIGUI-142    
1 67440U 26007F   26037.89058726 -.00000133  00000+0  82559-5 0  9990
2 67440  50.0086 198.4087 0002669 359.4384   0.6505 13.75583257  3373
HULIANWANG DIGUI-143    
1 67441U 26007G   26038.32315028  .00000025  00000+0  17090-3 0  9996
2 67441  50.0086 196.6966 0000687 190.2242 169.8637 13.75632050  3439
