CCSDS_OMM_VERS = 2.0
CREATION_DATE  = 
ORIGINATOR     = 

OBJECT_NAME    = STARLINK-36515
OBJECT_ID      = 2026-005AC
CENTER_NAME    = EARTH
REF_FRAME      = TEME
TIME_SYSTEM    = UTC
MEAN_ELEMENT_THEORY = SGP/SGP4

EPOCH          = 2026-02-07T05:52:31.748160
MEAN_MOTION    = 15.50623913
ECCENTRICITY   = .0001438
INCLINATION    = 42.9999
RA_OF_ASC_NODE = 52.2266
ARG_OF_PERICENTER = 247.1035
MEAN_ANOMALY   = 112.9674

EPHEMERIS_TYPE = 0
CLASSIFICATION_TYPE = U
NORAD_CAT_ID   = 67430
ELEMENT_SET_NO = 999
REV_AT_EPOCH   = 400
BSTAR          = .14074868E-2
MEAN_MOTION_DOT = .83245E-3
MEAN_MOTION_DDOT = 0

CCSDS_OMM_VERS = 2.0
CREATION_DATE  = 
ORIGINATOR     = 

OBJECT_NAME    = STARLINK-36443
OBJECT_ID      = 2026-005AD
CENTER_NAME    = EARTH
REF_FRAME      = TEME
TIME_SYSTEM    = UTC
MEAN_ELEMENT_THEORY = SGP/SGP4

EPOCH          = 2026-02-06T11:17:58.006464
MEAN_MOTION    = 15.50589941
ECCENTRICITY   = .00014056
INCLINATION    = 43.0004
RA_OF_ASC_NODE = 56.7384
ARG_OF_PERICENTER = 276.4311
MEAN_ANOMALY   = 83.6389

EPHEMERIS_TYPE = 0
CLASSIFICATION_TYPE = U
NORAD_CAT_ID   = 67431
ELEMENT_SET_NO = 999
REV_AT_EPOCH   = 389
BSTAR          = .16010569E-2
MEAN_MOTION_DOT = .94766E-3
MEAN_MOTION_DDOT = 0

CCSDS_OMM_VERS = 2.0
CREATION_DATE  = 
ORIGINATOR     = 

OBJECT_NAME    = STARLINK-36460
OBJECT_ID      = 2026-005AE
CENTER_NAME    = EARTH
REF_FRAME      = TEME
TIME_SYSTEM    = UTC
MEAN_ELEMENT_THEORY = SGP/SGP4

EPOCH          = 2026-02-07T05:50:33.307584
MEAN_MOTION    = 15.50625205
ECCENTRICITY   = .00014605
INCLINATION    = 43.0007
RA_OF_ASC_NODE = 52.2165
ARG_OF_PERICENTER = 259.9805
MEAN_ANOMALY   = 100.0891

EPHEMERIS_TYPE = 0
CLASSIFICATION_TYPE = U
NORAD_CAT_ID   = 67432
ELEMENT_SET_NO = 999
REV_AT_EPOCH   = 400
BSTAR          = .1760795E-2
MEAN_MOTION_DOT = .104517E-2
MEAN_MOTION_DDOT = 0

CCSDS_OMM_VERS = 2.0
CREATION_DATE  = 
ORIGINATOR     = 

OBJECT_NAME    = YAOGAN-50 01
OBJECT_ID      = 2026-006A
CENTER_NAME    = EARTH
REF_FRAME      = TEME
TIME_SYSTEM    = UTC
MEAN_ELEMENT_THEORY = SGP/SGP4

EPOCH          = 2026-02-07T07:15:15.494688
MEAN_MOTION    = 13.83241718
ECCENTRICITY   = .00007359
INCLINATION    = 142.0320
RA_OF_ASC_NODE = 308.0997
ARG_OF_PERICENTER = 263.6810
MEAN_ANOMALY   = 96.3825

EPHEMERIS_TYPE = 0
CLASSIFICATION_TYPE = U
NORAD_CAT_ID   = 67433
ELEMENT_SET_NO = 999
REV_AT_EPOCH   = 344
BSTAR          = .1775256E-3
MEAN_MOTION_DOT = .385E-5
MEAN_MOTION_DDOT = 0

CCSDS_OMM_VERS = 2.0
CREATION_DATE  = 
ORIGINATOR     = 

OBJECT_NAME    = CZ-6A R/B
OBJECT_ID      = 2026-006B
CENTER_NAME    = EARTH
REF_FRAME      = TEME
TIME_SYSTEM    = UTC
MEAN_ELEMENT_THEORY = SGP/SGP4

EPOCH          = 2026-02-07T07:13:50.791584
MEAN_MOTION    = 14.62310461
ECCENTRICITY   = .02036059
INCLINATION    = 142.0436
RA_OF_ASC_NODE = 323.5235
ARG_OF_PERICENTER = 262.9627
MEAN_ANOMALY   = 94.7921

EPHEMERIS_TYPE = 0
CLASSIFICATION_TYPE = U
NORAD_CAT_ID   = 67434
ELEMENT_SET_NO = 999
REV_AT_EPOCH   = 362
BSTAR          = .24928427E-3
MEAN_MOTION_DOT = .2049E-4
MEAN_MOTION_DDOT = 0

CCSDS_OMM_VERS = 2.0
CREATION_DATE  = 
ORIGINATOR     = 

OBJECT_NAME    = HULIANWANG DIGUI-137
OBJECT_ID      = 2026-007A
CENTER_NAME    = EARTH
REF_FRAME      = TEME
TIME_SYSTEM    = UTC
MEAN_ELEMENT_THEORY = SGP/SGP4

EPOCH          = 2026-02-07T06:15:36.110304
MEAN_MOTION    = 13.75084022
ECCENTRICITY   = .00005316
INCLINATION    = 50.0068
RA_OF_ASC_NODE = 197.0278
ARG_OF_PERICENTER = 356.1281
MEAN_ANOMALY   = 3.9607

EPHEMERIS_TYPE = 0
CLASSIFICATION_TYPE = U
NORAD_CAT_ID   = 67435
ELEMENT_SET_NO = 999
REV_AT_EPOCH   = 342
BSTAR          = .1683843E-3
MEAN_MOTION_DOT = .21E-6
MEAN_MOTION_DDOT = 0

CCSDS_OMM_VERS = 2.0
CREATION_DATE  = 
ORIGINATOR     = 

OBJECT_NAME    = HULIANWANG DIGUI-138
OBJECT_ID      = 2026-007B
CENTER_NAME    = EARTH
REF_FRAME      = TEME
TIME_SYSTEM    = UTC
MEAN_ELEMENT_THEORY = SGP/SGP4

EPOCH          = 2026-02-07T06:23:56.305824
MEAN_MOTION    = 13.74706406
ECCENTRICITY   = .00002511
INCLINATION    = 50.0044
RA_OF_ASC_NODE = 197.0516
ARG_OF_PERICENTER = 73.7968
MEAN_ANOMALY   = 286.2951

EPHEMERIS_TYPE = 0
CLASSIFICATION_TYPE = U
NORAD_CAT_ID   = 67436
ELEMENT_SET_NO = 999
REV_AT_EPOCH   = 342
BSTAR          = .16610276E-3
MEAN_MOTION_DOT = .18E-6
MEAN_MOTION_DDOT = 0

CCSDS_OMM_VERS = 2.0
CREATION_DATE  = 
ORIGINATOR     = 

OBJECT_NAME    = HULIANWANG DIGUI-139
OBJECT_ID      = 2026-007C
CENTER_NAME    = EARTH
REF_FRAME      = TEME
TIME_SYSTEM    = UTC
MEAN_ELEMENT_THEORY = SGP/SGP4

EPOCH          = 2026-02-06T19:51:21.136608
MEAN_MOTION    = 13.74984577
ECCENTRICITY   = .00009462
INCLINATION    = 50.0031
RA_OF_ASC_NODE = 198.7083
ARG_OF_PERICENTER = 213.8812
MEAN_ANOMALY   = 146.2020

EPHEMERIS_TYPE = 0
CLASSIFICATION_TYPE = U
NORAD_CAT_ID   = 67437
ELEMENT_SET_NO = 999
REV_AT_EPOCH   = 336
BSTAR          = .19832882E-3
MEAN_MOTION_DOT = .5E-6
MEAN_MOTION_DDOT = 0

CCSDS_OMM_VERS = 2.0
CREATION_DATE  = 
ORIGINATOR     = 

OBJECT_NAME    = HULIANWANG DIGUI-140
OBJECT_ID      = 2026-007D
CENTER_NAME    = EARTH
REF_FRAME      = TEME
TIME_SYSTEM    = UTC
MEAN_ELEMENT_THEORY = SGP/SGP4

EPOCH          = 2026-02-07T06:28:40.700928
MEAN_MOTION    = 13.74511421
ECCENTRICITY   = .00002215
INCLINATION    = 50.0039
RA_OF_ASC_NODE = 197.0672
ARG_OF_PERICENTER = 136.5189
MEAN_ANOMALY   = 223.5721

EPHEMERIS_TYPE = 0
CLASSIFICATION_TYPE = U
NORAD_CAT_ID   = 67438
ELEMENT_SET_NO = 999
REV_AT_EPOCH   = 342
BSTAR          = .19230771E-3
MEAN_MOTION_DOT = .43E-6
MEAN_MOTION_DDOT = 0

CCSDS_OMM_VERS = 2.0
CREATION_DATE  = 
ORIGINATOR     = 

OBJECT_NAME    = HULIANWANG DIGUI-141
OBJECT_ID      = 2026-007E
CENTER_NAME    = EARTH
REF_FRAME      = TEME
TIME_SYSTEM    = UTC
MEAN_ELEMENT_THEORY = SGP/SGP4

EPOCH          = 2026-02-07T06:10:18.157440
MEAN_MOTION    = 13.75280399
ECCENTRICITY   = .00002927
INCLINATION    = 50.0035
RA_OF_ASC_NODE = 196.9984
ARG_OF_PERICENTER = 166.8493
MEAN_ANOMALY   = 193.2407

EPHEMERIS_TYPE = 0
CLASSIFICATION_TYPE = U
NORAD_CAT_ID   = 67439
ELEMENT_SET_NO = 999
REV_AT_EPOCH   = 342
BSTAR          = .17104189E-3
MEAN_MOTION_DOT = .24E-6
MEAN_MOTION_DDOT = 0

CCSDS_OMM_VERS = 2.0
CREATION_DATE  = 
ORIGINATOR     = 

OBJECT_NAME    = HULIANWANG DIGUI-142
OBJECT_ID      = 2026-007F
CENTER_NAME    = EARTH
REF_FRAME      = TEME
TIME_SYSTEM    = UTC
MEAN_ELEMENT_THEORY = SGP/SGP4

EPOCH          = 2026-02-06T21:22:26.739264
MEAN_MOTION    = 13.75583257
ECCENTRICITY   = .00026698
INCLINATION    = 50.0086
RA_OF_ASC_NODE = 198.4087
ARG_OF_PERICENTER = 359.4384
MEAN_ANOMALY   = 0.6505

EPHEMERIS_TYPE = 0
CLASSIFICATION_TYPE = U
NORAD_CAT_ID   = 67440
ELEMENT_SET_NO = 999
REV_AT_EPOCH   = 337
BSTAR          = .8255868E-5
MEAN_MOTION_DOT = -.133E-5
MEAN_MOTION_DDOT = 0

CCSDS_OMM_VERS = 2.0
CREATION_DATE  = 
ORIGINATOR     = 

OBJECT_NAME    = HULIANWANG DIGUI-143
OBJECT_ID      = 2026-007G
CENTER_NAME    = EARTH
REF_FRAME      = TEME
TIME_SYSTEM    = UTC
MEAN_ELEMENT_THEORY = SGP/SGP4

EPOCH          = 2026-02-07T07:45:20.184192
MEAN_MOTION    = 13.75632050
ECCENTRICITY   = .00006873
INCLINATION    = 50.0086
RA_OF_ASC_NODE = 196.6966
ARG_OF_PERICENTER = 190.2242
MEAN_ANOMALY   = 169.8637

EPHEMERIS_TYPE = 0
CLASSIFICATION_TYPE = U
NORAD_CAT_ID   = 67441
ELEMENT_SET_NO = 999
REV_AT_EPOCH   = 343
BSTAR          = .17089885E-3
MEAN_MOTION_DOT = .25E-6
MEAN_MOTION_DDOT = 0

